     2.11           N: GPS NAV DATA                         RINEX VERSION / TYPE
teqc  2019Feb25                         20221121 12:26:28UTCPGM / RUN BY / DATE
OSX ker:10.11.6|Core i5|gcc 4.3 -m64|OSX ker:10.10+|=+      COMMENT
    5.5879D-09  1.4901D-08 -5.9605D-08 -1.1921D-07          ION ALPHA
    7.7824D+04  3.2768D+04 -6.5536D+04 -2.6214D+05          ION BETA
    3.725290298462D-09 1.332267629550D-14   147456     1546 DELTA-UTC: A0,A1,T,W
                                                            END OF HEADER
28 09  8 23  0  0  0.0-2.621999010444D-05 0.000000000000D+00 0.000000000000D+00
    3.900000000000D+01-4.478125000000D+01 4.844844664370D-09-1.351830872656D+00
   -1.940876245499D-06 1.502024254296D-02 3.816559910774D-06 5.153644338608D+03
    0.000000000000D+00 2.309679985046D-07 2.196835415219D+00 2.570450305939D-07
    9.673618330632D-01 3.044375000000D+02-2.019080702770D+00-8.365348450341D-09
   -7.000291590243D-11 1.000000000000D+00 1.546000000000D+03 0.000000000000D+00
    2.000000000000D+00 0.000000000000D+00-1.071020960808D-08 3.900000000000D+01
   -7.182000000000D+03 4.000000000000D+00
19 09  8 23  0  0  0.0 1.402664929628D-05-1.591615728103D-12 0.000000000000D+00
    9.700000000000D+01-3.121875000000D+01 4.456257049565D-09-2.531669086819D+00
   -1.534819602966D-06 5.815624492243D-03 1.255981624126D-05 5.153653789520D+03
    0.000000000000D+00-1.545995473862D-07-2.996316953451D+00 3.911554813385D-08
    9.580036046269D-01 1.388750000000D+02-2.836349839984D-01-7.852827101769D-09
   -1.546492989069D-10 1.000000000000D+00 1.546000000000D+03 0.000000000000D+00
    2.000000000000D+00 0.000000000000D+00-1.443549990654D-08 9.700000000000D+01
   -7.182000000000D+03 4.000000000000D+00
22 09  8 23  0  0  0.0 1.926710829139D-04-9.094947017729D-13 0.000000000000D+00
    8.600000000000D+01-2.290625000000D+01 5.444512500085D-09-1.592180128053D+00
   -1.320615410805D-06 5.299723474309D-03 2.883374691010D-06 5.153652835846D+03
    0.000000000000D+00 1.545995473862D-07-9.425727052280D-01 1.247972249985D-07
    9.385326989570D-01 3.138125000000D+02-1.893965160691D+00-8.707148401966D-09
   -3.882304570711D-10 1.000000000000D+00 1.546000000000D+03 0.000000000000D+00
    2.000000000000D+00 0.000000000000D+00-1.769512891769D-08 8.600000000000D+01
   -7.182000000000D+03 4.000000000000D+00
11 09  8 23  0  0  0.0-1.627812162042D-05-1.705302565824D-12 0.000000000000D+00
    2.200000000000D+01 8.428125000000D+01 6.300262431219D-09 1.484704747684D+00
    4.550442099571D-06 9.693540865555D-03 1.019425690174D-05 5.153702720642D+03
    0.000000000000D+00-2.086162567139D-07-2.242139774739D+00 1.750886440277D-07
    8.891563215926D-01 1.465312500000D+02 7.152637582237D-01-8.999660586273D-09
    2.678683006471D-10 1.000000000000D+00 1.546000000000D+03 0.000000000000D+00
    2.000000000000D+00 0.000000000000D+00-1.164153218269D-08 2.200000000000D+01
   -7.182000000000D+03 4.000000000000D+00
26 09  8 23  0  0  0.0 6.421050056815D-05-4.547473508865D-13 0.000000000000D+00
    3.900000000000D+01-5.996875000000D+01 3.467287283576D-09 1.129557548617D+00
   -2.980232238770D-06 2.019185072277D-02 1.259893178940D-05 5.154922836304D+03
    0.000000000000D+00-3.073364496231D-07 1.286611873692D-01-9.313225746155D-08
    9.926961597454D-01 1.644375000000D+02 1.032943616693D+00-7.758894617676D-09
   -5.003779856087D-10 1.000000000000D+00 1.546000000000D+03 0.000000000000D+00
    2.000000000000D+00 0.000000000000D+00-6.519258022308D-09 3.900000000000D+01
   -7.182000000000D+03 4.000000000000D+00
17 09  8 23  0  0  0.0 7.926765829325D-05 2.728484105319D-12 0.000000000000D+00
    6.900000000000D+01-3.843750000000D+01 4.478757986819D-09-1.898996918627D+00
   -2.006068825722D-06 4.618374980055D-03 1.242756843567D-05 5.153730859756D+03
    0.000000000000D+00 1.471489667892D-07-3.052089204269D+00-5.587935447693D-09
    9.603156822828D-01 1.381875000000D+02-2.636723759088D+00-7.926044437280D-09
   -1.942938074027D-10 1.000000000000D+00 1.546000000000D+03 0.000000000000D+00
    2.800000000000D+00 0.000000000000D+00-1.024454832077D-08 6.900000000000D+01
   -7.182000000000D+03 4.000000000000D+00
 9 09  8 23  0  0  0.0 7.345294579864D-05 2.046363078989D-12 0.000000000000D+00
    9.800000000000D+01 5.412500000000D+01 4.119814463952D-09 7.054283639457D-01
    2.747401595116D-06 2.072911686264D-02 9.676441550255D-06 5.153631122589D+03
    0.000000000000D+00-2.104789018631D-07 1.085201416023D+00-1.043081283569D-07
    9.772017872568D-01 2.050000000000D+02 1.506986896213D+00-8.301774373654D-09
    4.889489381144D-10 1.000000000000D+00 1.546000000000D+03 0.000000000000D+00
    2.800000000000D+00 0.000000000000D+00-5.587935447693D-09 9.800000000000D+01
   -7.182000000000D+03 4.000000000000D+00
27 09  8 23  0  0  0.0 7.651140913367D-05 3.183231456205D-12 0.000000000000D+00
    9.800000000000D+01 7.768750000000D+01 3.963379376374D-09-2.272287469094D+00
    4.021450877190D-06 2.132301696111D-02 9.141862392426D-06 5.153751523972D+03
    0.000000000000D+00 3.334134817123D-07 1.060939621879D+00 1.303851604462D-07
    9.752660189443D-01 2.011875000000D+02-1.555707922851D+00-7.566029441210D-09
    7.061008405057D-10 1.000000000000D+00 1.546000000000D+03 0.000000000000D+00
    2.800000000000D+00 0.000000000000D+00-4.190951585770D-09 9.800000000000D+01
   -7.182000000000D+03 4.000000000000D+00
32 09  8 23  0  0  0.0 2.102418802679D-04-6.821210263297D-12 0.000000000000D+00
    5.400000000000D+01-3.446875000000D+01 4.813414783761D-09 2.376171805436D+00
   -1.754611730576D-06 1.324666268192D-02 3.147870302200D-06 5.153740457535D+03
    0.000000000000D+00 2.235174179077D-07-8.905473752842D-01-7.450580596924D-09
    9.625984576895D-01 3.151875000000D+02-1.129964526575D+00-8.275344701323D-09
   -5.157357681791D-10 1.000000000000D+00 1.546000000000D+03 0.000000000000D+00
    2.000000000000D+00 0.000000000000D+00-3.259629011154D-09 5.400000000000D+01
   -7.152000000000D+03 4.000000000000D+00
14 09  8 23  0  0  0.0-6.141839548945D-05 5.343281372916D-12 0.000000000000D+00
    8.700000000000D+01-5.628125000000D+01 3.485502328020D-09-2.394814835525D+00
   -2.788379788399D-06 4.800848430023D-03 1.165643334389D-05 5.153639648438D+03
    0.000000000000D+00-6.891787052155D-08 1.111661983355D-01-1.136213541031D-07
    9.883326159748D-01 1.710625000000D+02-2.166535739767D+00-7.431023817684D-09
   -2.625109346341D-10 1.000000000000D+00 1.546000000000D+03 0.000000000000D+00
    2.000000000000D+00 0.000000000000D+00-9.313225746155D-09 8.700000000000D+01
   -6.432000000000D+03 4.000000000000D+00
20 09  8 23  0  0  0.0 7.410440593958D-05-9.094947017729D-13 0.000000000000D+00
    7.800000000000D+01-2.093750000000D+01 5.487728585923D-09-3.805430253616D-01
   -1.089647412300D-06 3.833663882688D-03 2.607703208923D-06 5.153783618927D+03
    0.000000000000D+00-1.303851604462D-08-1.001967454275D+00-1.862645149231D-08
    9.405222265830D-01 3.157187500000D+02 1.331521546691D+00-8.866797909152D-09
   -3.378712165495D-10 1.000000000000D+00 1.546000000000D+03 0.000000000000D+00
    2.000000000000D+00 0.000000000000D+00-6.519258022308D-09 7.800000000000D+01
   -5.322000000000D+03 4.000000000000D+00
 4 09  8 23  0  0  0.0-2.316925674677D-04-1.705302565824D-11 0.000000000000D+00
    1.090000000000D+02 1.023437500000D+02 5.214502919263D-09-1.024806459645D-01
    5.329027771950D-06 8.690895396285D-03 8.037313818932D-06 5.153791461945D+03
    0.000000000000D+00 7.823109626770D-08-2.019273111607D+00 1.005828380585D-07
    9.399201129083D-01 2.118125000000D+02 5.036409766568D-01-8.600358239442D-09
    3.518003681831D-10 1.000000000000D+00 1.546000000000D+03 0.000000000000D+00
    2.000000000000D+00 0.000000000000D+00-6.053596735001D-09 1.090000000000D+02
   -4.320000000000D+02 4.000000000000D+00
